ONEWEB-0271             
1 48989U 21060Y   25178.79702909  .00000057  00000+0  11431-3 0  9997
2 48989  87.9054 299.4021 0002161 106.2184 253.9185 13.16594904193033
ONEWEB-0272             
1 48990U 21060Z   25178.89518818 -.00000094  00000+0 -28012-3 0  9990
2 48990  87.9049 299.4138 0002089 104.7229 255.4134 13.16593599192994
ONEWEB-0273             
1 48991U 21060AA  25178.84135766  .00000036  00000+0  61368-4 0  9999
2 48991  87.9049 299.4093 0002115 100.4349 259.7020 13.16593609192961
ONEWEB-0274             
1 48992U 21060AB  25178.86668917  .00000011  00000+0 -49644-5 0  9999
2 48992  87.9048 299.4400 0001837 113.2330 246.8994 13.16594231193000
ONEWEB-0275             
1 48993U 21060AC  25178.85560522  .00000116  00000+0  27086-3 0  9991
2 48993  87.9053 299.4013 0001999 104.2771 255.8582 13.16595495192932
ONEWEB-0276             
1 48994U 21060AD  25178.88885525 -.00000078  00000+0 -23844-3 0  9995
2 48994  87.9055 299.3914 0002215 100.0388 260.0993 13.16594255194258
ONEWEB-0277             
1 48995U 21060AE  25178.90151799 -.00000063  00000+0 -19889-3 0  9996
2 48995  87.9050 299.4244 0002283 107.5846 252.5535 13.16593332192944
ONEWEB-0278             
1 48996U 21060AF  25178.89202237  .00000014  00000+0  27806-5 0  9993
2 48996  87.9053 299.3879 0001939  93.2536 266.8817 13.16594059193078
ONEWEB-0279             
1 48997U 21060AG  25178.89993457 -.00000105  00000+0 -30921-3 0  9998
2 48997  87.9053 299.3820 0002160 109.0110 251.1255 13.16594234193007
ONEWEB-0280             
1 48998U 21060AH  25178.83898132  .00000035  00000+0  58592-4 0  9992
2 48998  87.9053 299.4008 0002299  97.1228 263.0164 13.16594435192932
ONEWEB-0281             
1 48999U 21060AJ  25178.84452362  .00000021  00000+0  20523-4 0  9993
2 48999  87.9054 299.3975 0001786 104.7872 255.3457 13.16595440193001
ONEWEB-0282             
1 49000U 21060AK  25178.79861182  .00000006  00000+0 -17721-4 0  9995
2 49000  87.9048 299.4199 0002128 101.1647 258.9723 13.16593305192977
ONEWEB-0283             
1 49001U 21060AL  25178.86352733  .00000070  00000+0  14999-3 0  9994
2 49001  87.9045 299.4108 0002084 104.8634 255.2728 13.16593938192991
ONEWEB-0284             
1 49002U 21060AM  25178.85718832  .00000097  00000+0  21990-3 0  9998
2 49002  87.9061 299.3811 0002018  91.9239 268.2123 13.16593495192973
ONEWEB-0285             
1 49075U 21075A   25178.63372397 -.00000320  00000+0 -92447-3 0  9998
2 49075  87.8874  61.1743 0001895  77.7724 282.3616 13.12443389189686
ONEWEB-0286             
1 49076U 21075B   25178.61560463 -.00000347  00000+0 -99990-3 0  9999
2 49076  87.8895  61.1984 0001701  74.6845 285.4472 13.12442734189039
ONEWEB-0287             
1 49077U 21075C   25178.69660402 -.00000022  00000+0 -91129-4 0  9999
2 49077  87.9063  76.4336 0001723  66.0681 294.0630 13.17649020186946
ONEWEB-0288             
1 49078U 21075D   25178.13398898  .00000401  00000+0  10800-2 0  9990
2 49078  87.8871  61.2673 0001870  75.5554 284.5782 13.12442572188612
ONEWEB-0289             
1 49079U 21075E   25178.95310934  .00000015  00000+0  62931-5 0  9992
2 49079  87.9064  76.4143 0002345  73.3410 286.7979 13.17648617187550
ONEWEB-0290             
1 49080U 21075F   25178.70843054 -.00000019  00000+0 -81171-4 0  9993
2 49080  87.9063  76.4187 0002559  78.0117 282.1301 13.17649472186932
ONEWEB-0291             
1 49081U 21075G   25178.46543244  .00000122  00000+0  28058-3 0  9992
2 49081  87.9054  76.4696 0001986  71.7437 288.3911 13.17649470186894
ONEWEB-0293             
1 49082U 21075H   25178.41480777  .00000148  00000+0  34683-3 0  9998
2 49082  87.9063  76.5125 0002051  77.1009 283.0352 13.17649907186911
ONEWEB-0294             
1 49083U 21075J   25178.36918840  .00000283  00000+0  75043-3 0  9995
2 49083  87.8868  61.2200 0002290  72.9058 287.2321 13.12442043188035
ONEWEB-0295             
1 49084U 21075K   25178.41395764  .00000107  00000+0  24169-3 0  9994
2 49084  87.9079  76.5082 0001893  66.5099 293.6232 13.17650208186871
ONEWEB-0296             
1 49085U 21075L   25178.95962997  .00000275  00000+0  72907-3 0  9991
2 49085  87.8868  61.1103 0002045  64.0677 296.0662 13.12444868188117
ONEWEB-0297             
1 49086U 21075M   25178.60924810 -.00000172  00000+0 -51442-3 0  9995
2 49086  87.8879  61.2153 0001761  76.5148 283.6176 13.12441478188678
ONEWEB-0298             
1 49087U 21075N   25178.94987881  .00002010  00000+0  51442-2 0  9990
2 49087  87.9064  76.4046 0001937  72.3166 287.8177 13.17641159186975
ONEWEB-0299             
1 49088U 21075P   25178.95141426  .00000045  00000+0  83030-4 0  9995
2 49088  87.9058  76.3567 0001716  74.6500 285.4821 13.17648716186952
ONEWEB-0300             
1 49089U 21075Q   25178.60114317  .00000097  00000+0  23519-3 0  9999
2 49089  87.8869  61.1720 0001623  88.0691 272.0623 13.12441338188693
ONEWEB-0301             
1 49090U 21075R   25178.96611149  .00000422  00000+0  11386-2 0  9995
2 49090  87.8869  61.1052 0001620  93.4236 266.7078 13.12442768188103
ONEWEB-0302             
1 49091U 21075S   25178.95312953  .00000107  00000+0  26179-3 0  9993
2 49091  87.8869  61.1088 0002128  72.7145 287.4216 13.12443007188084
ONEWEB-0304             
1 49092U 21075T   25178.69829796 -.00000017  00000+0 -76325-4 0  9994
2 49092  87.9064  76.4376 0001830  72.9997 287.1335 13.17649472186893
ONEWEB-0305             
1 49093U 21075U   25178.69154037 -.00000022  00000+0 -91010-4 0  9998
2 49093  87.9060  76.4160 0001707  65.4101 294.7208 13.17647218186921
ONEWEB-0308             
1 49094U 21075V   25178.64169174 -.00000068  00000+0 -22389-3 0  9994
2 49094  87.8869  61.1656 0001840  81.4397 278.6940 13.12443586188059
ONEWEB-0309             
1 49095U 21075W   25178.69491921  .00000008  00000+0 -13830-4 0  9993
2 49095  87.9064  76.4321 0002316  71.9131 288.2252 13.17651340186892
ONEWEB-0310             
1 49096U 21075X   25178.96124114  .00000385  00000+0  10338-2 0  9996
2 49096  87.8878  61.1449 0001920  77.2360 282.8983 13.12443517188725
ONEWEB-0311             
1 49097U 21075Y   25178.17011339  .00000080  00000+0  17165-3 0  9992
2 49097  87.9063  76.5387 0001673  70.5763 289.5549 13.17648586186876
ONEWEB-0312             
1 49098U 21075Z   25178.41311463  .00000087  00000+0  19152-3 0  9996
2 49098  87.9063  76.5204 0001988  66.9653 293.1688 13.17648885186889
ONEWEB-0313             
1 49099U 21075AA  25178.94959104  .00000080  00000+0  17259-3 0  9994
2 49099  87.9065  76.4293 0001771  78.2303 281.9027 13.17648714186947
ONEWEB-0314             
1 49100U 21075AB  25178.46038405 -.00002198  00000+0 -56963-2 0  9994
2 49100  87.9042  76.4563 0001733  78.3330 281.7996 13.17637406186853
ONEWEB-0315             
1 49101U 21075AC  25178.63033103 -.00000400  00000+0 -11466-2 0  9997
2 49101  87.8871  61.1580 0001482  74.5198 285.6094 13.12442421189664
ONEWEB-0316             
1 49102U 21075AD  25178.89187913  .00000006  00000+0 -17873-4 0  9996
2 49102  87.9136  45.8690 0001539  81.4357 278.6950 13.18740992190517
ONEWEB-0317             
1 49103U 21075AE  25178.39514101 -.00000414  00000+0 -11863-2 0  9990
2 49103  87.8872  61.2206 0002672  81.4820 278.6612 13.12444059188659
ONEWEB-0318             
1 49104U 21075AF  25178.88863309  .00000048  00000+0  88836-4 0  9999
2 49104  87.9135  45.8551 0001520  79.0820 281.0483 13.18758142190472
ONEWEB-0319             
1 49105U 21075AG  25178.47555592  .00000240  00000+0  58450-3 0  9999
2 49105  87.9063  76.5022 0001542  64.7932 295.3359 13.17648511186894
ONEWEB-0323             
1 49106U 21075AH  25178.69035054 -.00000257  00000+0 -75086-3 0  9994
2 49106  87.8871  61.1474 0001414  56.6048 303.5216 13.12441814188054
ONEWEB-0329             
1 49107U 21075AJ  25178.40805498  .00000089  00000+0  19597-3 0  9997
2 49107  87.9065  76.5204 0001794  70.6120 289.5206 13.17648982186869
ONEWEB-0330             
1 49108U 21075AK  25178.63754461 -.00000001  00000+0 -34627-4 0  9994
2 49108  87.9065  76.4772 0002048  71.5040 288.6314 13.17647742186934
ONEWEB-0292             
1 49186U 21083A   25178.86356665 -.00000015  00000+0 -77172-4 0  9995
2 49186  87.8960  30.6723 0001625  83.6074 276.5240 13.13470114184410
ONEWEB-0303             
1 49187U 21083B   25178.88543246 -.00000001  00000+0 -35082-4 0  9990
2 49187  87.9135  45.8571 0001610  78.6160 281.5152 13.18766934183284
ONEWEB-0306             
1 49188U 21083C   25178.87577602  .00000049  00000+0  91661-4 0  9998
2 49188  87.9135  45.8445 0001930  83.6982 276.4370 13.18802254183324
ONEWEB-0307             
1 49189U 21083D   25178.55293158 -.00000140  00000+0 -41899-3 0  9996
2 49189  87.8962  30.7384 0002139  82.7528 277.3844 13.13469779184373
ONEWEB-0320             
1 49190U 21083E   25178.35112392  .00000015  00000+0  44809-5 0  9991
2 49190  87.9135  45.9778 0001787  80.8570 279.2765 13.18778390183219
ONEWEB-0321             
1 49191U 21083F   25178.88641542  .00000025  00000+0  29450-4 0  9999
2 49191  87.9269 345.0064 0002159  96.2387 263.8992 13.20773202190063
ONEWEB-0322             
1 49192U 21083G   25178.85340987 -.00000211  00000+0 -61137-3 0  9992
2 49192  87.8962  30.6678 0002176  89.8500 270.2879 13.13469918184400
ONEWEB-0324             
1 49193U 21083H   25178.86841405  .00000005  00000+0 -19655-4 0  9994
2 49193  87.9135  45.8539 0001862  76.9346 283.1994 13.18693764183306
ONEWEB-0325             
1 49194U 21083J   25178.18973185  .00000136  00000+0  31173-3 0  9993
2 49194  87.9135  46.0059 0001873  84.2647 275.8698 13.18821819183229
ONEWEB-0326             
1 49195U 21083K   25178.88717559 -.00000057  00000+0 -17728-3 0  9996
2 49195  87.9133  45.8570 0001405  80.3819 279.7472 13.18763480183303
ONEWEB-0327             
1 49196U 21083L   25178.88689090  .00000002  00000+0 -28639-4 0  9998
2 49196  87.9134  45.8861 0001454  82.2242 277.9056 13.18765858183324
